{
  "type": "FeatureCollection",
  "features": [
    {
      "type": "Feature",
      "properties": {
        "norad_id": 38755,
        "name": "SPOT 6",
        "group": "resource",
        "lat": -18.857669417786944,
        "lon": -124.4467040613997,
        "alt_km": 703.4556327393439,
        "timestamp": "2025-12-19T16:54:43.907916+00:00",
        "meta_object_name": "SPOT 6",
        "meta_object_id": "2012-047A",
        "meta_epoch": "2025-12-19T07:46:14.578176",
        "meta_mean_motion": 14.58538188,
        "meta_eccentricity": 0.00012984,
        "meta_inclination": 98.1571,
        "meta_ra_of_asc_node": 57.9875,
        "meta_arg_of_pericenter": 78.607,
        "meta_mean_anomaly": 281.5275,
        "meta_ephemeris_type": 0,
        "meta_classification_type": "U",
        "meta_norad_cat_id": 38755,
        "meta_element_set_no": 999,
        "meta_rev_at_epoch": 70683,
        "meta_bstar": 8.322895e-05,
        "meta_mean_motion_dot": 3.41e-06,
        "meta_mean_motion_ddot": 0,
        "tle_line1": "1 38755U 12047A   25353.32377984  .00000341  00000+0  83229-4 0  9998",
        "tle_line2": "2 38755  98.1571  57.9875 0001298  78.6070 281.5275 14.58538188706835"
      },
      "geometry": {
        "type": "Point",
        "coordinates": [
          -124.4467040613997,
          -18.857669417786944
        ]
      }
    },
    {
      "type": "Feature",
      "properties": {
        "norad_id": 39019,
        "name": "PLEIADES 1B",
        "group": "resource",
        "lat": 79.28063827190725,
        "lon": -64.30741574740392,
        "alt_km": 689.6693130116,
        "timestamp": "2025-12-19T16:54:43.907926+00:00",
        "meta_object_name": "PLEIADES 1B",
        "meta_object_id": "2012-068A",
        "meta_epoch": "2025-12-19T06:35:27.204288",
        "meta_mean_motion": 14.58559019,
        "meta_eccentricity": 0.00011467,
        "meta_inclination": 98.1794,
        "meta_ra_of_asc_node": 65.8235,
        "meta_arg_of_pericenter": 86.1609,
        "meta_mean_anomaly": 273.9722,
        "meta_ephemeris_type": 0,
        "meta_classification_type": "U",
        "meta_norad_cat_id": 39019,
        "meta_element_set_no": 999,
        "meta_rev_at_epoch": 69462,
        "meta_bstar": 9.9883609e-05,
        "meta_mean_motion_dot": 4.19e-06,
        "meta_mean_motion_ddot": 0,
        "tle_line1": "1 39019U 12068A   25353.27462042  .00000419  00000+0  99884-4 0  9999",
        "tle_line2": "2 39019  98.1794  65.8235 0001146  86.1609 273.9722 14.58559019694629"
      },
      "geometry": {
        "type": "Point",
        "coordinates": [
          -64.30741574740392,
          79.28063827190725
        ]
      }
    },
    {
      "type": "Feature",
      "properties": {
        "norad_id": 39030,
        "name": "GOKTURK 2",
        "group": "resource",
        "lat": 10.904427426039149,
        "lon": -166.47634096485172,
        "alt_km": 645.7727492439235,
        "timestamp": "2025-12-19T16:54:43.907936+00:00",
        "meta_object_name": "GOKTURK 2",
        "meta_object_id": "2012-073A",
        "meta_epoch": "2025-12-19T07:05:44.784672",
        "meta_mean_motion": 14.75299653,
        "meta_eccentricity": 0.00012055,
        "meta_inclination": 97.6888,
        "meta_ra_of_asc_node": 194.6263,
        "meta_arg_of_pericenter": 107.8508,
        "meta_mean_anomaly": 252.2834,
        "meta_ephemeris_type": 0,
        "meta_classification_type": "U",
        "meta_norad_cat_id": 39030,
        "meta_element_set_no": 999,
        "meta_rev_at_epoch": 69798,
        "meta_bstar": 6.5580289e-05,
        "meta_mean_motion_dot": 3.97e-06,
        "meta_mean_motion_ddot": 0,
        "tle_line1": "1 39030U 12073A   25353.29565723  .00000397  00000+0  65580-4 0  9991",
        "tle_line2": "2 39030  97.6888 194.6263 0001205 107.8508 252.2834 14.75299653697987"
      },
      "geometry": {
        "type": "Point",
        "coordinates": [
          -166.47634096485172,
          10.904427426039149
        ]
      }
    },
    {
      "type": "Feature",
      "properties": {
        "norad_id": 39084,
        "name": "LANDSAT 8",
        "group": "resource",
        "lat": -50.241385966873665,
        "lon": -128.3141967025842,
        "alt_km": 710.0306675776337,
        "timestamp": "2025-12-19T16:54:43.907948+00:00",
        "meta_object_name": "LANDSAT 8",
        "meta_object_id": "2013-008A",
        "meta_epoch": "2025-12-19T05:58:02.809632",
        "meta_mean_motion": 14.57108944,
        "meta_eccentricity": 0.00010801,
        "meta_inclination": 98.2065,
        "meta_ra_of_asc_node": 61.2259,
        "meta_arg_of_pericenter": 89.6679,
        "meta_mean_anomaly": 270.4643,
        "meta_ephemeris_type": 0,
        "meta_classification_type": "U",
        "meta_norad_cat_id": 39084,
        "meta_element_set_no": 999,
        "meta_rev_at_epoch": 67169,
        "meta_bstar": 7.6861934e-05,
        "meta_mean_motion_dot": 3.01e-06,
        "meta_mean_motion_ddot": 0,
        "tle_line1": "1 39084U 13008A   25353.24864363  .00000301  00000+0  76862-4 0  9996",
        "tle_line2": "2 39084  98.2065  61.2259 0001080  89.6679 270.4643 14.57108944671693"
      },
      "geometry": {
        "type": "Point",
        "coordinates": [
          -128.3141967025842,
          -50.241385966873665
        ]
      }
    },
    {
      "type": "Feature",
      "properties": {
        "norad_id": 39086,
        "name": "SARAL",
        "group": "resource",
        "lat": -32.82422742472842,
        "lon": -176.8870067207473,
        "alt_km": 789.9203683961368,
        "timestamp": "2025-12-19T16:54:43.907959+00:00",
        "meta_object_name": "SARAL",
        "meta_object_id": "2013-009A",
        "meta_epoch": "2025-12-19T07:00:38.722176",
        "meta_mean_motion": 14.32759197,
        "meta_eccentricity": 0.0002949,
        "meta_inclination": 98.5502,
        "meta_ra_of_asc_node": 177.137,
        "meta_arg_of_pericenter": 96.3129,
        "meta_mean_anomaly": 263.8391,
        "meta_ephemeris_type": 0,
        "meta_classification_type": "U",
        "meta_norad_cat_id": 39086,
        "meta_element_set_no": 999,
        "meta_rev_at_epoch": 66984,
        "meta_bstar": 4.8739189e-05,
        "meta_mean_motion_dot": 8.9e-07,
        "meta_mean_motion_ddot": 0,
        "tle_line1": "1 39086U 13009A   25353.29211484  .00000089  00000+0  48739-4 0  9999",
        "tle_line2": "2 39086  98.5502 177.1370 0002949  96.3129 263.8391 14.32759197669840"
      },
      "geometry": {
        "type": "Point",
        "coordinates": [
          -176.8870067207473,
          -32.82422742472842
        ]
      }
    },
    {
      "type": "Feature",
      "properties": {
        "norad_id": 39150,
        "name": "GAOFEN-1",
        "group": "resource",
        "lat": 58.71780394745428,
        "lon": -102.49163757729947,
        "alt_km": 621.9267385851354,
        "timestamp": "2025-12-19T16:54:43.907969+00:00",
        "meta_object_name": "GAOFEN-1",
        "meta_object_id": "2013-018A",
        "meta_epoch": "2025-12-19T06:36:40.389408",
        "meta_mean_motion": 14.76490282,
        "meta_eccentricity": 0.00182839,
        "meta_inclination": 97.9326,
        "meta_ra_of_asc_node": 63.8197,
        "meta_arg_of_pericenter": 123.1608,
        "meta_mean_anomaly": 237.1359,
        "meta_ephemeris_type": 0,
        "meta_classification_type": "U",
        "meta_norad_cat_id": 39150,
        "meta_element_set_no": 999,
        "meta_rev_at_epoch": 68169,
        "meta_bstar": 7.7549029e-05,
        "meta_mean_motion_dot": 4.9e-06,
        "meta_mean_motion_ddot": 0,
        "tle_line1": "1 39150U 13018A   25353.27546747  .00000490  00000+0  77549-4 0  9999",
        "tle_line2": "2 39150  97.9326  63.8197 0018283 123.1608 237.1359 14.76490282681696"
      },
      "geometry": {
        "type": "Point",
        "coordinates": [
          -102.49163757729947,
          58.71780394745428
        ]
      }
    },
    {
      "type": "Feature",
      "properties": {
        "norad_id": 39160,
        "name": "VNREDSAT 1",
        "group": "resource",
        "lat": -70.60443875689276,
        "lon": -154.60930896626732,
        "alt_km": 685.4279445155798,
        "timestamp": "2025-12-19T16:54:43.907979+00:00",
        "meta_object_name": "VNREDSAT 1",
        "meta_object_id": "2013-021B",
        "meta_epoch": "2025-12-19T07:34:04.600128",
        "meta_mean_motion": 14.64932002,
        "meta_eccentricity": 0.00012089,
        "meta_inclination": 97.9371,
        "meta_ra_of_asc_node": 48.3602,
        "meta_arg_of_pericenter": 79.2256,
        "meta_mean_anomaly": 280.9083,
        "meta_ephemeris_type": 0,
        "meta_classification_type": "U",
        "meta_norad_cat_id": 39160,
        "meta_element_set_no": 999,
        "meta_rev_at_epoch": 67395,
        "meta_bstar": 9.4846448e-05,
        "meta_mean_motion_dot": 4.62e-06,
        "meta_mean_motion_ddot": 0,
        "tle_line1": "1 39160U 13021B   25353.31533102  .00000462  00000+0  94846-4 0  9998",
        "tle_line2": "2 39160  97.9371  48.3602 0001208  79.2256 280.9083 14.64932002673953"
      },
      "geometry": {
        "type": "Point",
        "coordinates": [
          -154.60930896626732,
          -70.60443875689276
        ]
      }
    }
  ]
}